NORAD_CAT_ID,OBJECT_NAME,OBJECT_TYPE,EPOCH,MEAN_MOTION,ECCENTRICITY,INCLINATION,RA_OF_ASC_NODE,ARG_OF_PERICENTER,MEAN_ANOMALY,BSTAR,MEAN_MOTION_DOT,MEAN_MOTION_DDOT,TLE_LINE0,TLE_LINE1,TLE_LINE2,SEMIMAJOR_AXIS,PERIOD,APOGEE,PERIGEE,DECAYED
51968.0,STARLINK-3681,PAYLOAD,2022-08-20 06:00:00,15.08833555,0.0001655,53.2177,93.5431,61.2846,263.0598,-0.0018864,-0.0003018,0.0,0 STARLINK-3681,1 51968U 22025N   22232.25001157 -.00030180  00000-0 -18864-2 0  9995,2 51968  53.2177  93.5431 0001655  61.2846 263.0598 15.08833555 26436,6917.9,95.438,540.91,538.62,0.0
51968.0,STARLINK-3681,PAYLOAD,2022-08-20 14:00:01,15.0881419,0.0001602,53.2179,92.0458,69.561,266.3627,0.0023963,0.00038028,0.0,0 STARLINK-3681,1 51968U 22025N   22232.58334491  .00038028  00000-0  23963-2 0  9994,2 51968  53.2179  92.0458 0001602  69.5610 266.3627 15.08814190  1305,6917.959,95.439,540.933,538.716,0.0
51968.0,STARLINK-3681,PAYLOAD,2022-08-20 22:00:00,15.08828914,0.0001744,53.2178,90.5514,62.786,284.7171,0.00012221,1.657e-05,0.0,0 STARLINK-3681,1 51968U 22025N   22232.91667824  .00001657  00000-0  12221-3 0  9994,2 51968  53.2178  90.5514 0001744  62.7860 284.7171 15.08828914  1306,6917.9140000000025,95.438,540.986,538.573,0.0
51968.0,STARLINK-3681,PAYLOAD,2022-08-21 14:00:01,15.08832229,0.0001653,53.2177,87.5572,70.6932,299.9802,0.0019732,0.00031248,0.0,0 STARLINK-3681,1 51968U 22025N   22233.58334491  .00031248  00000-0  19732-2 0  9991,2 51968  53.2177  87.5572 0001653  70.6932 299.9802 15.08832229  1305,6917.904,95.438,540.913,538.626,0.0
51968.0,STARLINK-3681,PAYLOAD,2022-08-21 22:00:00,15.088399300000004,0.0001795,53.2176,86.0627,63.6623,318.6085,0.00025377,3.753e-05,0.0,0 STARLINK-3681,1 51968U 22025N   22233.91667824  .00003753  00000-0  25377-3 0  9990,2 51968  53.2176  86.0627 0001795  63.6623 318.6085 15.08839930  1303,6917.880999999999,95.438,540.987,538.504,0.0
51968.0,STARLINK-3681,PAYLOAD,2022-08-22 06:00:00,15.08866297,0.0001699999999999,53.2175,84.5654,63.7874,330.0775,-0.0021195,-0.00033886,0.0,0 STARLINK-3681,1 51968U 22025N   22234.25001157 -.00033886  00000-0 -21195-2 0  9994,2 51968  53.2175  84.5654 0001700  63.7874 330.0775 15.08866297 26734,6917.8,95.436,540.841,538.489,0.0
51968.0,STARLINK-3681,PAYLOAD,2022-08-22 12:00:00,15.08841911,0.0001628,53.2175,83.4421,69.2719,243.3082,4.9981e-05,5.08e-06,0.0,0 STARLINK-3681,1 51968U 22025N   22234.50001157  .00000508  00000-0  49981-4 0  9990,2 51968  53.2175  83.4421 0001628  69.2719 243.3082 15.08841911  1301,6917.875,95.437,540.866,538.613,0.0
51968.0,STARLINK-3681,PAYLOAD,2022-08-22 22:00:00,15.08824802,0.000175,53.2177,81.5737,62.0207,355.0572,0.0005754,8.878e-05,0.0,0 STARLINK-3681,1 51968U 22025N   22234.91667824  .00008878  00000-0  57540-3 0  9991,2 51968  53.2177  81.5737 0001750  62.0207 355.0572 15.08824802  1306,6917.927,95.439,541.002,538.581,0.0
51968.0,STARLINK-3681,PAYLOAD,2022-08-23 06:00:00,15.08850377,0.0001669,53.2177,80.0763,63.1381,5.518,-0.0017886,-0.00028649,0.0,0 STARLINK-3681,1 51968U 22025N   22235.25001157 -.00028649  00000-0 -17886-2 0  9998,2 51968  53.2177  80.0763 0001669  63.1381   5.5180 15.08850377 26881,6917.849,95.437,540.868,538.559,0.0
51968.0,STARLINK-3681,PAYLOAD,2022-08-23 14:00:01,15.08839042,0.0001682,53.2179,78.5792,69.0544,11.1925,0.00095003,0.00014864,0.0,0 STARLINK-3681,1 51968U 22025N   22235.58334491  .00014864  00000-0  95003-3 0  9994,2 51968  53.2179  78.5792 0001682  69.0544  11.1925 15.08839042  1304,6917.8830000000025,95.438,540.9119999999998,538.585,0.0
51968.0,STARLINK-3681,PAYLOAD,2022-08-23 22:00:01,15.08833779,0.0001798,53.218,77.0846,61.9076,30.0045,0.00095295,0.00014908,0.0,0 STARLINK-3681,1 51968U 22025N   22235.91668981  .00014908  00000-0  95295-3 0  9997,2 51968  53.2180  77.0846 0001798  61.9076  30.0045 15.08833779 26995,6917.899,95.438,541.008,538.521,0.0
51968.0,STARLINK-3681,PAYLOAD,2022-08-24 14:00:01,15.08827595,0.0001623,53.2183,74.0902,68.1068,46.9286,0.00044378,6.779e-05,0.0,0 STARLINK-3681,1 51968U 22025N   22236.58334491  .00006779  00000-0  44378-3 0  9990,2 51968  53.2183  74.0902 0001623  68.1068  46.9286 15.08827595 27099,6917.918000000002,95.438,540.906,538.661,0.0
51968.0,STARLINK-3681,PAYLOAD,2022-08-24 22:00:00,15.08815501,0.0001733999999999,53.2183,72.5956,60.6441,65.9782,0.0014495999999999,0.00022842,0.0,0 STARLINK-3681,1 51968U 22025N   22236.91667824  .00022842  00000-0  14496-2 0  9992,2 51968  53.2183  72.5956 0001734  60.6441  65.9782 15.08815501  1308,6917.955,95.439,541.02,538.621,0.0
51968.0,STARLINK-3681,PAYLOAD,2022-08-25 14:00:01,15.08826369,0.0001619,53.218,69.6021,67.1727,82.6092,0.0040274,0.0006437,0.0,0 STARLINK-3681,1 51968U 22025N   22237.58334491  .00064370  00000-0  40274-2 0  9992,2 51968  53.2180  69.6021 0001619  67.1727  82.6092 15.08826369  1300,6917.922,95.438,540.9069999999998,538.6669999999998,0.0
51968.0,STARLINK-3681,PAYLOAD,2022-08-25 22:00:00,15.08822974,0.0001727,53.2184,68.1065,61.3397,100.0422,0.0018578,0.00029389,0.0,0 STARLINK-3681,1 51968U 22025N   22237.91667824  .00029389  00000-0  18578-2 0  9991,2 51968  53.2184  68.1065 0001727  61.3397 100.0422 15.08822974 27291,6917.932,95.439,540.992,538.6030000000002,0.0
51968.0,STARLINK-3681,PAYLOAD,2022-08-26 14:00:01,15.08855051,0.0001612,53.2185,65.1121,71.0901,113.5353,-0.00041032,-6.815e-05,0.0,0 STARLINK-3681,1 51968U 22025N   22238.58335648 -.00006815  00000-0 -41032-3 0  9994,2 51968  53.2185  65.1121 0001612  71.0901 113.5353 15.08855051  1302,6917.834,95.437,540.815,538.5840000000002,0.0
51968.0,STARLINK-3681,PAYLOAD,2022-08-26 22:00:00,15.08830075,0.0001696999999999,53.2183,63.6173,62.6458,133.5325,0.0022476999999999,0.00035656,0.0,0 STARLINK-3681,1 51968U 22025N   22238.91667824  .00035656  00000-0  22477-2 0  9999,2 51968  53.2183  63.6173 0001697  62.6458 133.5325 15.08830075 27449,6917.911,95.438,540.95,538.602,0.0
51968.0,STARLINK-3681,PAYLOAD,2022-08-27 14:00:01,15.08862536,0.0001512,53.2182,60.6231,72.048,147.3362,-0.0027132,-0.00043236,0.0,0 STARLINK-3681,1 51968U 22025N   22239.58334491 -.00043236  00000-0 -27132-2 0  9992,2 51968  53.2182  60.6231 0001512  72.0480 147.3362 15.08862536 27548,6917.812,95.436,540.722,538.631,0.0
51968.0,STARLINK-3681,PAYLOAD,2022-08-27 22:00:00,15.08811762,0.0001571999999999,53.2179,59.1281,62.38399999999999,168.6092,0.0026057,0.00041393,0.0,0 STARLINK-3681,1 51968U 22025N   22239.91667824  .00041393  00000-0  26057-2 0  9993,2 51968  53.2179  59.1281 0001572  62.3840 168.6092 15.08811762  1307,6917.967,95.439,540.919,538.744,0.0
51968.0,STARLINK-3681,PAYLOAD,2022-08-28 06:00:00,15.08833944,0.0001431999999999,53.2178,57.63,68.6224,173.9495,6.18e-05,6.96e-06,0.0,0 STARLINK-3681,1 51968U 22025N   22240.25001157  .00000696  00000-0  61800-4 0  9991,2 51968  53.2178  57.6300 0001432  68.6224 173.9495 15.08833944 27648,6917.899,95.438,540.755,538.773,0.0
51968.0,STARLINK-3681,PAYLOAD,2022-08-28 14:00:01,15.088533300000002,0.0001472,53.2178,56.13399999999999,72.0852,182.0688,-0.00091167,-0.00014773,0.0,0 STARLINK-3681,1 51968U 22025N   22240.58334491 -.00014773  00000-0 -91167-3 0  9998,2 51968  53.2178  56.1340 0001472  72.0852 182.0688 15.08853330  1307,6917.84,95.437,540.7230000000002,538.686,0.0
51968.0,STARLINK-3681,PAYLOAD,2022-08-28 22:00:00,15.08821992,0.0001541,53.2177,54.6389,62.6386,203.1238,0.0028235,0.00044912,0.0,0 STARLINK-3681,1 51968U 22025N   22240.91667824  .00044912  00000-0  28235-2 0  9995,2 51968  53.2177  54.6389 0001541  62.6386 203.1238 15.08821992  1301,6917.935,95.439,540.866,538.734,0.0
51968.0,STARLINK-3681,PAYLOAD,2022-08-29 06:00:02,15.08845073,0.0001364,53.2177,53.1408,68.0868,209.3346,-0.0022500999999999,-0.00035925,0.0,0 STARLINK-3681,1 51968U 22025N   22241.25002315 -.00035925  00000-0 -22501-2 0  9997,2 51968  53.2177  53.1408 0001364  68.0868 209.3346 15.08845073 27790,6917.865,95.437,540.673,538.786,0.0
51968.0,STARLINK-3681,PAYLOAD,2022-08-29 14:00:01,15.08837587,0.0001376999999999,53.2178,51.6448,69.6104,219.3283,-0.0010987,-0.0001773,0.0,0 STARLINK-3681,1 51968U 22025N   22241.58334491 -.00017730  00000-0 -10987-2 0  9995,2 51968  53.2178  51.6448 0001377  69.6104 219.3283 15.08837587  1303,6917.888000000001,95.438,540.705,538.8,0.0
51968.0,STARLINK-3681,PAYLOAD,2022-08-29 22:00:00,15.08805581,0.0001465999999999,53.2178,50.1498,59.9773,240.5489,0.0030198,0.00048055,0.0,0 STARLINK-3681,1 51968U 22025N   22241.91667824  .00048055  00000-0  30198-2 0  9999,2 51968  53.2178  50.1498 0001466  59.9773 240.5489 15.08805581  1308,6917.986,95.44,540.865,538.836,0.0
51968.0,STARLINK-3681,PAYLOAD,2022-08-30 14:00:01,15.08854663,0.0001409,53.2182,47.1558,67.4278,256.2535,-0.0014402999999999,-0.00023146,0.0,0 STARLINK-3681,1 51968U 22025N   22242.58334491 -.00023146  00000-0 -14403-2 0  9991,2 51968  53.2182  47.1558 0001409  67.4278 256.2535 15.08854663 27991,6917.8359999999975,95.437,540.675,538.726,0.0
51968.0,STARLINK-3681,PAYLOAD,2022-08-30 22:00:00,15.08825986,0.0001433,53.2183,45.6608,57.0159,278.2725,0.0001858,2.669e-05,0.0,0 STARLINK-3681,1 51968U 22025N   22242.91667824  .00002669  00000-0  18580-3 0  9993,2 51968  53.2183  45.6608 0001433  57.0159 278.2725 15.08825986  1309,6917.9230000000025,95.438,540.78,538.797,0.0
51968.0,STARLINK-3681,PAYLOAD,2022-08-31 14:00:01,15.08843102,0.000136,53.2189,42.667,63.1173,295.3184,-0.0014607,-0.00023461,0.0,0 STARLINK-3681,1 51968U 22025N   22243.58334491 -.00023461  00000-0 -14607-2 0  9998,2 51968  53.2189  42.6670 0001360  63.1173 295.3184 15.08843102  1303,6917.871,95.437,540.677,538.795,0.0
51968.0,STARLINK-3681,PAYLOAD,2022-08-31 22:00:00,15.08814283,0.0001437,53.2189,41.1719,54.5481,315.4792,0.0026915,0.00042777,0.0,0 STARLINK-3681,1 51968U 22025N   22243.91667824  .00042777  00000-0  26915-2 0  9998,2 51968  53.2189  41.1719 0001437  54.5481 315.4792 15.08814283 28195,6917.959,95.439,540.818,538.83,0.0
